{
  "type": "FeatureCollection",
  "features": [
    {
      "type": "Feature",
      "properties": {
        "norad_id": 35045,
        "name": "COSMOS 2251 DEB",
        "group": "cosmos-2251-debris",
        "lat": 3.5365168075719757,
        "lon": -150.84054815844536,
        "alt_km": 901.9537956523145,
        "timestamp": "2025-12-25T11:37:44.835351+00:00",
        "meta_object_name": "COSMOS 2251 DEB",
        "meta_object_id": "1993-036AHJ",
        "meta_epoch": "2025-12-24T19:20:26.125152",
        "meta_mean_motion": 14.0041252,
        "meta_eccentricity": 0.01839955,
        "meta_inclination": 73.7191,
        "meta_ra_of_asc_node": 31.3925,
        "meta_arg_of_pericenter": 271.7742,
        "meta_mean_anomaly": 86.2325,
        "meta_ephemeris_type": 0,
        "meta_classification_type": "U",
        "meta_norad_cat_id": 35045,
        "meta_element_set_no": 999,
        "meta_rev_at_epoch": 84812,
        "meta_bstar": 0.0006276669,
        "meta_mean_motion_dot": 1.049e-05,
        "meta_mean_motion_ddot": 0,
        "tle_line1": "1 35045U 93036AHJ 25358.80585793  .00001049  00000+0  62767-3 0  9990",
        "tle_line2": "2 35045  73.7191  31.3925 0183995 271.7742  86.2325 14.00412520848123"
      },
      "geometry": {
        "type": "Point",
        "coordinates": [
          -150.84054815844536,
          3.5365168075719757
        ]
      }
    },
    {
      "type": "Feature",
      "properties": {
        "norad_id": 35060,
        "name": "COSMOS 2251 DEB",
        "group": "cosmos-2251-debris",
        "lat": 5.921997141796307,
        "lon": 39.024157788923596,
        "alt_km": 763.5218368129608,
        "timestamp": "2025-12-25T11:37:44.835361+00:00",
        "meta_object_name": "COSMOS 2251 DEB",
        "meta_object_id": "1993-036AHP",
        "meta_epoch": "2025-12-23T23:50:58.864704",
        "meta_mean_motion": 14.416228,
        "meta_eccentricity": 0.00187381,
        "meta_inclination": 74.0364,
        "meta_ra_of_asc_node": 223.4863,
        "meta_arg_of_pericenter": 306.8479,
        "meta_mean_anomaly": 53.0958,
        "meta_ephemeris_type": 0,
        "meta_classification_type": "U",
        "meta_norad_cat_id": 35060,
        "meta_element_set_no": 999,
        "meta_rev_at_epoch": 87404,
        "meta_bstar": 0.0002601881,
        "meta_mean_motion_dot": 8.22e-06,
        "meta_mean_motion_ddot": 0,
        "tle_line1": "1 35060U 93036AHP 25357.99373686  .00000822  00000+0  26019-3 0  9990",
        "tle_line2": "2 35060  74.0364 223.4863 0018738 306.8479  53.0958 14.41622800874043"
      },
      "geometry": {
        "type": "Point",
        "coordinates": [
          39.024157788923596,
          5.921997141796307
        ]
      }
    },
    {
      "type": "Feature",
      "properties": {
        "norad_id": 35061,
        "name": "COSMOS 2251 DEB",
        "group": "cosmos-2251-debris",
        "lat": -2.1874635032399468,
        "lon": 101.73781867414183,
        "alt_km": 695.6292739547152,
        "timestamp": "2025-12-25T11:37:44.835371+00:00",
        "meta_object_name": "COSMOS 2251 DEB",
        "meta_object_id": "1993-036AHQ",
        "meta_epoch": "2025-12-23T13:00:21.862944",
        "meta_mean_motion": 14.67913326,
        "meta_eccentricity": 0.00396373,
        "meta_inclination": 74.0464,
        "meta_ra_of_asc_node": 284.8618,
        "meta_arg_of_pericenter": 32.7091,
        "meta_mean_anomaly": 327.652,
        "meta_ephemeris_type": 0,
        "meta_classification_type": "U",
        "meta_norad_cat_id": 35061,
        "meta_element_set_no": 999,
        "meta_rev_at_epoch": 88733,
        "meta_bstar": 0.00077438177,
        "meta_mean_motion_dot": 4.453e-05,
        "meta_mean_motion_ddot": 0,
        "tle_line1": "1 35061U 93036AHQ 25357.54191971  .00004453  00000+0  77438-3 0  9992",
        "tle_line2": "2 35061  74.0464 284.8618 0039637  32.7091 327.6520 14.67913326887335"
      },
      "geometry": {
        "type": "Point",
        "coordinates": [
          101.73781867414183,
          -2.1874635032399468
        ]
      }
    },
    {
      "type": "Feature",
      "properties": {
        "norad_id": 35062,
        "name": "COSMOS 2251 DEB",
        "group": "cosmos-2251-debris",
        "lat": -20.422721609281364,
        "lon": 64.29575822427365,
        "alt_km": 815.1864636058854,
        "timestamp": "2025-12-25T11:37:44.835381+00:00",
        "meta_object_name": "COSMOS 2251 DEB",
        "meta_object_id": "1993-036AHR",
        "meta_epoch": "2025-12-20T22:03:28.302048",
        "meta_mean_motion": 14.22993492,
        "meta_eccentricity": 0.0126453,
        "meta_inclination": 74.0793,
        "meta_ra_of_asc_node": 78.5797,
        "meta_arg_of_pericenter": 75.845,
        "meta_mean_anomaly": 285.6708,
        "meta_ephemeris_type": 0,
        "meta_classification_type": "U",
        "meta_norad_cat_id": 35062,
        "meta_element_set_no": 999,
        "meta_rev_at_epoch": 85615,
        "meta_bstar": 0.0011493,
        "meta_mean_motion_dot": 2.786e-05,
        "meta_mean_motion_ddot": 0,
        "tle_line1": "1 35062U 93036AHR 25354.91907757  .00002786  00000+0  11493-2 0  9993",
        "tle_line2": "2 35062  74.0793  78.5797 0126453  75.8450 285.6708 14.22993492856157"
      },
      "geometry": {
        "type": "Point",
        "coordinates": [
          64.29575822427365,
          -20.422721609281364
        ]
      }
    },
    {
      "type": "Feature",
      "properties": {
        "norad_id": 35065,
        "name": "COSMOS 2251 DEB",
        "group": "cosmos-2251-debris",
        "lat": -8.747790251288656,
        "lon": 168.02037172403826,
        "alt_km": 735.5735879219674,
        "timestamp": "2025-12-25T11:37:44.835391+00:00",
        "meta_object_name": "COSMOS 2251 DEB",
        "meta_object_id": "1993-036AHU",
        "meta_epoch": "2025-12-19T06:12:25.656192",
        "meta_mean_motion": 14.4574331,
        "meta_eccentricity": 0.0020018,
        "meta_inclination": 74.0185,
        "meta_ra_of_asc_node": 182.1668,
        "meta_arg_of_pericenter": 306.5523,
        "meta_mean_anomaly": 53.3791,
        "meta_ephemeris_type": 0,
        "meta_classification_type": "U",
        "meta_norad_cat_id": 35065,
        "meta_element_set_no": 999,
        "meta_rev_at_epoch": 68445,
        "meta_bstar": 0.00028971,
        "meta_mean_motion_dot": 1.002e-05,
        "meta_mean_motion_ddot": 0,
        "tle_line1": "1 35065U 93036AHU 25353.25863028  .00001002  00000+0  28971-3 0  9994",
        "tle_line2": "2 35065  74.0185 182.1668 0020018 306.5523  53.3791 14.45743310684450"
      },
      "geometry": {
        "type": "Point",
        "coordinates": [
          168.02037172403826,
          -8.747790251288656
        ]
      }
    },
    {
      "type": "Feature",
      "properties": {
        "norad_id": 35071,
        "name": "COSMOS 2251 DEB",
        "group": "cosmos-2251-debris",
        "lat": -18.57903438396174,
        "lon": 141.6656209598844,
        "alt_km": 535.6345233774982,
        "timestamp": "2025-12-25T11:37:44.835401+00:00",
        "meta_object_name": "COSMOS 2251 DEB",
        "meta_object_id": "1993-036AJA",
        "meta_epoch": "2025-12-25T02:08:01.634784",
        "meta_mean_motion": 15.03684095,
        "meta_eccentricity": 0.0068543,
        "meta_inclination": 73.9325,
        "meta_ra_of_asc_node": 148.0386,
        "meta_arg_of_pericenter": 40.7776,
        "meta_mean_anomaly": 319.8513,
        "meta_ephemeris_type": 0,
        "meta_classification_type": "U",
        "meta_norad_cat_id": 35071,
        "meta_element_set_no": 999,
        "meta_rev_at_epoch": 67722,
        "meta_bstar": 0.00076375,
        "meta_mean_motion_dot": 0.00010995,
        "meta_mean_motion_ddot": 0,
        "tle_line1": "1 35071U 93036AJA 25359.08890781  .00010995  00000+0  76375-3 0  9996",
        "tle_line2": "2 35071  73.9325 148.0386 0068543  40.7776 319.8513 15.03684095677229"
      },
      "geometry": {
        "type": "Point",
        "coordinates": [
          141.6656209598844,
          -18.57903438396174
        ]
      }
    },
    {
      "type": "Feature",
      "properties": {
        "norad_id": 35073,
        "name": "COSMOS 2251 DEB",
        "group": "cosmos-2251-debris",
        "lat": -24.937240085704886,
        "lon": -63.08961216515706,
        "alt_km": 564.9604714061952,
        "timestamp": "2025-12-25T11:37:44.835411+00:00",
        "meta_object_name": "COSMOS 2251 DEB",
        "meta_object_id": "1993-036AJC",
        "meta_epoch": "2025-12-23T13:22:12.377280",
        "meta_mean_motion": 15.01382354,
        "meta_eccentricity": 0.00112511,
        "meta_inclination": 74.0027,
        "meta_ra_of_asc_node": 308.5087,
        "meta_arg_of_pericenter": 50.3654,
        "meta_mean_anomaly": 309.8525,
        "meta_ephemeris_type": 0,
        "meta_classification_type": "U",
        "meta_norad_cat_id": 35073,
        "meta_element_set_no": 999,
        "meta_rev_at_epoch": 67641,
        "meta_bstar": 0.0032564954,
        "meta_mean_motion_dot": 0.00042271,
        "meta_mean_motion_ddot": 0,
        "tle_line1": "1 35073U 93036AJC 25357.55708770  .00042271  00000+0  32565-2 0  9998",
        "tle_line2": "2 35073  74.0027 308.5087 0011251  50.3654 309.8525 15.01382354676412"
      },
      "geometry": {
        "type": "Point",
        "coordinates": [
          -63.08961216515706,
          -24.937240085704886
        ]
      }
    }
  ]
}